[{"OBJECT_NAME":"ONEWEB-0353","OBJECT_ID":"2021-090D","EPOCH":"2026-04-01T02:28:51.337344","MEAN_MOTION":13.14504724,"ECCENTRICITY":0.0001848,"INCLINATION":87.8947,"RA_OF_ASC_NODE":305.0899,"ARG_OF_PERICENTER":92.1586,"MEAN_ANOMALY":267.9755,"EPHEMERIS_TYPE":0,"CLASSIFICATION_TYPE":"U","NORAD_CAT_ID":49282,"ELEMENT_SET_NO":999,"REV_AT_EPOCH":21745,"BSTAR":0.00045136,"MEAN_MOTION_DOT":1.8e-06,"MEAN_MOTION_DDOT":0.0},{"OBJECT_NAME":"ONEWEB-0356","OBJECT_ID":"2021-090E","EPOCH":"2026-04-01T02:32:18.652416","MEAN_MOTION":13.20771857,"ECCENTRICITY":0.0001409,"INCLINATION":87.9142,"RA_OF_ASC_NODE":289.8247,"ARG_OF_PERICENTER":120.5205,"MEAN_ANOMALY":239.6068,"EPHEMERIS_TYPE":0,"CLASSIFICATION_TYPE":"U","NORAD_CAT_ID":49283,"ELEMENT_SET_NO":999,"REV_AT_EPOCH":21965,"BSTAR":0.00024778,"MEAN_MOTION_DOT":1.14e-06,"MEAN_MOTION_DDOT":0.0},{"OBJECT_NAME":"ONEWEB-0358","OBJECT_ID":"2021-090F","EPOCH":"2026-04-01T01:26:24.813888","MEAN_MOTION":13.2077166,"ECCENTRICITY":0.0001551,"INCLINATION":87.9146,"RA_OF_ASC_NODE":289.8367,"ARG_OF_PERICENTER":89.3404,"MEAN_ANOMALY":270.7907,"EPHEMERIS_TYPE":0,"CLASSIFICATION_TYPE":"U","NORAD_CAT_ID":49284,"ELEMENT_SET_NO":999,"REV_AT_EPOCH":22037,"BSTAR":0.00031655,"MEAN_MOTION_DOT":1.42e-06,"MEAN_MOTION_DDOT":0.0},{"OBJECT_NAME":"ONEWEB-0359","OBJECT_ID":"2021-090G","EPOCH":"2026-04-01T01:21:51.395904","MEAN_MOTION":13.20772294,"ECCENTRICITY":0.0001506,"INCLINATION":87.9143,"RA_OF_ASC_NODE":289.8344,"ARG_OF_PERICENTER":81.7295,"MEAN_ANOMALY":278.4009,"EPHEMERIS_TYPE":0,"CLASSIFICATION_TYPE":"U","NORAD_CAT_ID":49285,"ELEMENT_SET_NO":999,"REV_AT_EPOCH":22035,"BSTAR":-2.4865000000000003e-05,"MEAN_MOTION_DOT":3e-08,"MEAN_MOTION_DDOT":0.0},{"OBJECT_NAME":"ONEWEB-0360","OBJECT_ID":"2021-090H","EPOCH":"2026-04-01T01:08:08.179296","MEAN_MOTION":13.20785411,"ECCENTRICITY":0.000157,"INCLINATION":87.913,"RA_OF_ASC_NODE":289.844,"ARG_OF_PERICENTER":89.144,"MEAN_ANOMALY":270.9873,"EPHEMERIS_TYPE":0,"CLASSIFICATION_TYPE":"U","NORAD_CAT_ID":49286,"ELEMENT_SET_NO":999,"REV_AT_EPOCH":21966,"BSTAR":-0.0057645000000000005,"MEAN_MOTION_DOT":-2.331e-05,"MEAN_MOTION_DDOT":0.0},{"OBJECT_NAME":"ONEWEB-0361","OBJECT_ID":"2021-090J","EPOCH":"2026-04-01T02:30:02.536992","MEAN_MOTION":13.20771746,"ECCENTRICITY":0.0001547,"INCLINATION":87.9143,"RA_OF_ASC_NODE":289.8292,"ARG_OF_PERICENTER":94.0906,"MEAN_ANOMALY":266.0404,"EPHEMERIS_TYPE":0,"CLASSIFICATION_TYPE":"U","NORAD_CAT_ID":49287,"ELEMENT_SET_NO":999,"REV_AT_EPOCH":22012,"BSTAR":0.00019878999999999999,"MEAN_MOTION_DOT":9.4e-07,"MEAN_MOTION_DDOT":0.0},{"OBJECT_NAME":"ONEWEB-0362","OBJECT_ID":"2021-090K","EPOCH":"2026-04-01T03:32:12.219360","MEAN_MOTION":13.19726401,"ECCENTRICITY":0.0001915,"INCLINATION":87.9194,"RA_OF_ASC_NODE":320.3385,"ARG_OF_PERICENTER":77.1361,"MEAN_ANOMALY":282.9985,"EPHEMERIS_TYPE":0,"CLASSIFICATION_TYPE":"U","NORAD_CAT_ID":49288,"ELEMENT_SET_NO":999,"REV_AT_EPOCH":21675,"BSTAR":0.00013328000000000002,"MEAN_MOTION_DOT":6.6e-07,"MEAN_MOTION_DDOT":0.0},{"OBJECT_NAME":"ONEWEB-0363","OBJECT_ID":"2021-090L","EPOCH":"2026-04-01T02:52:46.123392","MEAN_MOTION":13.20772259,"ECCENTRICITY":0.0001441,"INCLINATION":87.9143,"RA_OF_ASC_NODE":289.8267,"ARG_OF_PERICENTER":98.3391,"MEAN_ANOMALY":261.7906,"EPHEMERIS_TYPE":0,"CLASSIFICATION_TYPE":"U","NORAD_CAT_ID":49289,"ELEMENT_SET_NO":999,"REV_AT_EPOCH":22013,"BSTAR":0.00022241,"MEAN_MOTION_DOT":1.03e-06,"MEAN_MOTION_DDOT":0.0},{"OBJECT_NAME":"ONEWEB-0364","OBJECT_ID":"2021-090M","EPOCH":"2026-04-01T01:58:12.783360","MEAN_MOTION":13.20771582,"ECCENTRICITY":0.0001696,"INCLINATION":87.9134,"RA_OF_ASC_NODE":289.8466,"ARG_OF_PERICENTER":88.3561,"MEAN_ANOMALY":271.7766,"EPHEMERIS_TYPE":0,"CLASSIFICATION_TYPE":"U","NORAD_CAT_ID":49290,"ELEMENT_SET_NO":999,"REV_AT_EPOCH":22126,"BSTAR":-1.4199000000000002e-06,"MEAN_MOTION_DOT":1.2e-07,"MEAN_MOTION_DDOT":0.0},{"OBJECT_NAME":"ONEWEB-0365","OBJECT_ID":"2021-090N","EPOCH":"2026-04-01T03:45:50.859360","MEAN_MOTION":13.19726463,"ECCENTRICITY":0.0001783,"INCLINATION":87.9204,"RA_OF_ASC_NODE":320.3184,"ARG_OF_PERICENTER":83.2466,"MEAN_ANOMALY":276.8869,"EPHEMERIS_TYPE":0,"CLASSIFICATION_TYPE":"U","NORAD_CAT_ID":49291,"ELEMENT_SET_NO":999,"REV_AT_EPOCH":21626,"BSTAR":6.358700000000001e-05,"MEAN_MOTION_DOT":3.8e-07,"MEAN_MOTION_DDOT":0.0},{"OBJECT_NAME":"ONEWEB-0366","OBJECT_ID":"2021-090P","EPOCH":"2026-04-01T02:24:17.684352","MEAN_MOTION":13.14504841,"ECCENTRICITY":0.0001625,"INCLINATION":87.8936,"RA_OF_ASC_NODE":305.098,"ARG_OF_PERICENTER":85.1399,"MEAN_ANOMALY":274.9916,"EPHEMERIS_TYPE":0,"CLASSIFICATION_TYPE":"U","NORAD_CAT_ID":49292,"ELEMENT_SET_NO":999,"REV_AT_EPOCH":21743,"BSTAR":0.00023734,"MEAN_MOTION_DOT":1.01e-06,"MEAN_MOTION_DDOT":0.0},{"OBJECT_NAME":"ONEWEB-0367","OBJECT_ID":"2021-090Q","EPOCH":"2026-04-01T01:01:23.922336","MEAN_MOTION":13.20771994,"ECCENTRICITY":0.0001865,"INCLINATION":87.9145,"RA_OF_ASC_NODE":289.8419,"ARG_OF_PERICENTER":85.1786,"MEAN_ANOMALY":274.9561,"EPHEMERIS_TYPE":0,"CLASSIFICATION_TYPE":"U","NORAD_CAT_ID":49293,"ELEMENT_SET_NO":999,"REV_AT_EPOCH":21964,"BSTAR":0.00028824,"MEAN_MOTION_DOT":1.3e-06,"MEAN_MOTION_DDOT":0.0},{"OBJECT_NAME":"ONEWEB-0368","OBJECT_ID":"2021-090R","EPOCH":"2026-04-01T02:11:51.470880","MEAN_MOTION":13.20771715,"ECCENTRICITY":0.0002048,"INCLINATION":87.9132,"RA_OF_ASC_NODE":289.8517,"ARG_OF_PERICENTER":111.9143,"MEAN_ANOMALY":248.2208,"EPHEMERIS_TYPE":0,"CLASSIFICATION_TYPE":"U","NORAD_CAT_ID":49294,"ELEMENT_SET_NO":999,"REV_AT_EPOCH":22080,"BSTAR":-2.3814e-05,"MEAN_MOTION_DOT":3e-08,"MEAN_MOTION_DDOT":0.0},{"OBJECT_NAME":"ONEWEB-0369","OBJECT_ID":"2021-090S","EPOCH":"2026-04-01T03:39:01.866816","MEAN_MOTION":13.19726371,"ECCENTRICITY":0.0001745,"INCLINATION":87.9192,"RA_OF_ASC_NODE":320.335,"ARG_OF_PERICENTER":85.0114,"MEAN_ANOMALY":275.1218,"EPHEMERIS_TYPE":0,"CLASSIFICATION_TYPE":"U","NORAD_CAT_ID":49295,"ELEMENT_SET_NO":999,"REV_AT_EPOCH":21625,"BSTAR":0.00023771,"MEAN_MOTION_DOT":1.08e-06,"MEAN_MOTION_DDOT":0.0},{"OBJECT_NAME":"ONEWEB-0370","OBJECT_ID":"2021-090T","EPOCH":"2026-04-01T01:15:02.894976","MEAN_MOTION":13.20772092,"ECCENTRICITY":0.0001713,"INCLINATION":87.9143,"RA_OF_ASC_NODE":289.8411,"ARG_OF_PERICENTER":79.4859,"MEAN_ANOMALY":280.6467,"EPHEMERIS_TYPE":0,"CLASSIFICATION_TYPE":"U","NORAD_CAT_ID":49296,"ELEMENT_SET_NO":999,"REV_AT_EPOCH":21968,"BSTAR":0.00021014,"MEAN_MOTION_DOT":9.8e-07,"MEAN_MOTION_DDOT":0.0},{"OBJECT_NAME":"ONEWEB-0371","OBJECT_ID":"2021-090U","EPOCH":"2026-04-01T03:50:23.845344","MEAN_MOTION":13.19726808,"ECCENTRICITY":0.0001804,"INCLINATION":87.9193,"RA_OF_ASC_NODE":320.3227,"ARG_OF_PERICENTER":81.3816,"MEAN_ANOMALY":278.7521,"EPHEMERIS_TYPE":0,"CLASSIFICATION_TYPE":"U","NORAD_CAT_ID":49297,"ELEMENT_SET_NO":999,"REV_AT_EPOCH":21629,"BSTAR":4.3881999999999995e-07,"MEAN_MOTION_DOT":1.3e-07,"MEAN_MOTION_DDOT":0.0}]