ONEWEB-0353             
1 49282U 21090D   26091.10337196  .00000180  00000+0  45136-3 0  9995
2 49282  87.8947 305.0899 0001848  92.1586 267.9755 13.14504724217457
ONEWEB-0356             
1 49283U 21090E   26091.10577144  .00000114  00000+0  24778-3 0  9991
2 49283  87.9142 289.8247 0001409 120.5205 239.6068 13.20771857219656
ONEWEB-0358             
1 49284U 21090F   26091.06000942  .00000142  00000+0  31655-3 0  9997
2 49284  87.9146 289.8367 0001551  89.3404 270.7907 13.20771660220376
ONEWEB-0359             
1 49285U 21090G   26091.05684486  .00000003  00000+0 -24865-4 0  9991
2 49285  87.9143 289.8344 0001506  81.7295 278.4009 13.20772294220353
ONEWEB-0360             
1 49286U 21090H   26091.04731689 -.00002331  00000+0 -57645-2 0  9996
2 49286  87.9130 289.8440 0001570  89.1440 270.9873 13.20785411219665
ONEWEB-0361             
1 49287U 21090J   26091.10419603  .00000094  00000+0  19879-3 0  9993
2 49287  87.9143 289.8292 0001547  94.0906 266.0404 13.20771746220126
ONEWEB-0362             
1 49288U 21090K   26091.14736365  .00000066  00000+0  13328-3 0  9997
2 49288  87.9194 320.3385 0001915  77.1361 282.9985 13.19726401216754
ONEWEB-0363             
1 49289U 21090L   26091.11997828  .00000103  00000+0  22241-3 0  9994
2 49289  87.9143 289.8267 0001441  98.3391 261.7906 13.20772259220138
ONEWEB-0364             
1 49290U 21090M   26091.08209240  .00000012  00000+0 -14199-5 0  9991
2 49290  87.9134 289.8466 0001696  88.3561 271.7766 13.20771582221269
ONEWEB-0365             
1 49291U 21090N   26091.15683865  .00000038  00000+0  63587-4 0  9990
2 49291  87.9204 320.3184 0001783  83.2466 276.8869 13.19726463216261
ONEWEB-0366             
1 49292U 21090P   26091.10020468  .00000101  00000+0  23734-3 0  9990
2 49292  87.8936 305.0980 0001625  85.1399 274.9916 13.14504841217439
ONEWEB-0367             
1 49293U 21090Q   26091.04263799  .00000130  00000+0  28824-3 0  9997
2 49293  87.9145 289.8419 0001865  85.1786 274.9561 13.20771994219648
ONEWEB-0368             
1 49294U 21090R   26091.09156795  .00000003  00000+0 -23814-4 0  9995
2 49294  87.9132 289.8517 0002048 111.9143 248.2208 13.20771715220806
ONEWEB-0369             
1 49295U 21090S   26091.15210494  .00000108  00000+0  23771-3 0  9996
2 49295  87.9192 320.3350 0001745  85.0114 275.1218 13.19726371216251
ONEWEB-0370             
1 49296U 21090T   26091.05211684  .00000098  00000+0  21014-3 0  9994
2 49296  87.9143 289.8411 0001713  79.4859 280.6467 13.20772092219683
ONEWEB-0371             
1 49297U 21090U   26091.15999821  .00000013  00000+0  43882-6 0  9999
2 49297  87.9193 320.3227 0001804  81.3816 278.7521 13.19726808216296
